NORAD_CAT_ID,OBJECT_NAME,OBJECT_TYPE,EPOCH,MEAN_MOTION,ECCENTRICITY,INCLINATION,RA_OF_ASC_NODE,ARG_OF_PERICENTER,MEAN_ANOMALY,BSTAR,MEAN_MOTION_DOT,MEAN_MOTION_DDOT,TLE_LINE0,TLE_LINE1,TLE_LINE2,SEMIMAJOR_AXIS,PERIOD,APOGEE,PERIGEE,DECAYED
53859.0,STARLINK-4790,PAYLOAD,2023-12-21 05:10:51,15.08862554,0.0001371,53.2184,322.6409,88.1902,271.9247,0.00037985,5.766e-05,0.0,0 STARLINK-4790,1 53859U 22114AT  23355.21587663  .00005766  00000-0  37985-3 0  9995,2 53859  53.2184 322.6409 0001371  88.1902 271.9247 15.08862554 70307,6917.811,95.436,540.625,538.728,0.0
53859.0,STARLINK-4790,PAYLOAD,2023-12-22 03:26:17,15.08829697,0.0001509,53.2188,318.4834,108.1859,251.9297,0.00033741,5.084e-05,0.0,0 STARLINK-4790,1 53859U 22114AT  23356.14326120  .00005084  00000-0  33741-3 0  9996,2 53859  53.2188 318.4834 0001509 108.1859 251.9297 15.08829697 70442,6917.912,95.438,540.821,538.733,0.0
53859.0,STARLINK-4790,PAYLOAD,2023-12-22 05:01:40,15.08838361,0.0001456,53.2182,318.1858,86.1572,273.9587,0.00028702,4.283e-05,0.0,0 STARLINK-4790,1 53859U 22114AT  23356.20950010  .00004283  00000-0  28702-3 0  9995,2 53859  53.2182 318.1858 0001456  86.1572 273.9587 15.08838361 70991,6917.885,95.438,540.758,538.743,0.0
53859.0,STARLINK-4790,PAYLOAD,2023-12-23 03:17:04,15.08856656,0.000178,53.219,314.0247,62.1955,297.9218,-0.00012368,-2.257e-05,0.0,0 STARLINK-4790,1 53859U 22114AT  23357.13685646 -.00002257  00000-0 -12368-3 0  9990,2 53859  53.2190 314.0247 0001780  62.1955 297.9218 15.08856656 70596,6917.829,95.437,540.926,538.463,0.0
53859.0,STARLINK-4790,PAYLOAD,2023-12-23 06:27:49,15.08865355,0.0001617,53.2194,313.4198,76.667,283.4502,-3.5701e-05,-8.57e-06,0.0,0 STARLINK-4790,1 53859U 22114AT  23357.26932368 -.00000857  00000-0 -35701-4 0  9991,2 53859  53.2194 313.4198 0001617  76.6670 283.4502 15.08865355 70616,6917.803,95.436,540.786,538.549,0.0
53859.0,STARLINK-4790,PAYLOAD,2023-12-23 20:46:19,15.0883451,0.000233,53.2177,310.7565,57.6256,302.4961,3.3259e-05,2.41e-06,0.0,0 STARLINK-4790,1 53859U 22114AT  23357.86550329  .00000241  00000-0  33259-4 0  9991,2 53859  53.2177 310.7565 0002330  57.6256 302.4961 15.08834510 71247,6917.897,95.438,541.374,538.15,0.0
53859.0,STARLINK-4790,PAYLOAD,2023-12-24 03:07:51,15.08835986,0.0001993,53.2178,309.5667,64.0084,296.1113,4.4662e-05,4.23e-06,0.0,0 STARLINK-4790,1 53859U 22114AT  23358.13046244  .00000423  00000-0  44662-4 0  9990,2 53859  53.2178 309.5667 0001993  64.0084 296.1113 15.08835986 70742,6917.893,95.438,541.136,538.379,0.0
53859.0,STARLINK-4790,PAYLOAD,2023-12-24 04:43:14,15.08838976,0.000198,53.2181,309.2697,61.5683,298.5508,8.8592e-05,1.122e-05,0.0,0 STARLINK-4790,1 53859U 22114AT  23358.19670124  .00001122  00000-0  88592-4 0  9993,2 53859  53.2181 309.2697 0001980  61.5683 298.5508 15.08838976 71296,6917.884,95.438,541.118,538.379,0.0
53859.0,STARLINK-4790,PAYLOAD,2023-12-25 02:58:38,15.08848121,0.0001754,53.218,305.106,73.1131,287.0054,0.0001222,1.658e-05,0.0,0 STARLINK-4790,1 53859U 22114AT  23359.12405683  .00001658  00000-0  12220-3 0  9991,2 53859  53.2180 305.1060 0001754  73.1131 287.0054 15.08848121 70897,6917.856,95.437,540.934,538.507,0.0
53859.0,STARLINK-4790,PAYLOAD,2023-12-25 06:09:24,15.08853435,0.0001756,53.2194,304.4979,73.6737,286.4448,0.00019211,2.772e-05,0.0,0 STARLINK-4790,1 53859U 22114AT  23359.25653216  .00002772  00000-0  19211-3 0  9997,2 53859  53.2194 304.4979 0001756  73.6737 286.4448 15.08853435 71459,6917.839,95.437,540.919,538.49,0.0
53859.0,STARLINK-4790,PAYLOAD,2023-12-26 02:49:26,15.08838356,0.0001715,53.2182,300.6438,81.8168,278.3019,3.9275e-05,3.37e-06,0.0,0 STARLINK-4790,1 53859U 22114AT  23360.11766290  .00000337  00000-0  39275-4 0  9999,2 53859  53.2182 300.6438 0001715  81.8168 278.3019 15.08838356 71042,6917.885,95.438,540.937,538.564,0.0
53859.0,STARLINK-4790,PAYLOAD,2023-12-26 06:00:11,15.08844464,0.0001505,53.2176,300.0446,98.8598,261.2565,8.152e-05,1.01e-05,0.0,0 STARLINK-4790,1 53859U 22114AT  23360.25013779  .00001010  00000-0  81520-4 0  9990,2 53859  53.2176 300.0446 0001505  98.8598 261.2565 15.08844464 71606,6917.867,95.437,540.773,538.691,0.0
53859.0,STARLINK-4790,PAYLOAD,2023-12-27 05:50:58,15.08851337,0.0001707,53.2184,295.5812,107.9005,252.2173,0.00026312,3.903e-05,0.0,0 STARLINK-4790,1 53859U 22114AT  23361.24373575  .00003903  00000-0  26312-3 0  9993,2 53859  53.2184 295.5812 0001707 107.9005 252.2173 15.08851337 71757,6917.846,95.437,540.892,538.53,0.0
53859.0,STARLINK-4790,PAYLOAD,2023-12-27 20:09:27,15.08840246,0.0001497,53.2179,292.9025,112.3523,247.7628,0.00010551,1.392e-05,0.0,0 STARLINK-4790,1 53859U 22114AT  23361.83990021  .00001392  00000-0  10551-3 0  9997,2 53859  53.2179 292.9025 0001497 112.3523 247.7628 15.08840246 71301,6917.88,95.438,540.78,538.709,0.0
53859.0,STARLINK-4790,PAYLOAD,2023-12-28 02:30:59,15.08842552,0.0001428,53.218,291.7165,106.4824,253.6325,0.00012079,1.635e-05,0.0,0 STARLINK-4790,1 53859U 22114AT  23362.10485929  .00001635  00000-0  12079-3 0  9991,2 53859  53.2180 291.7165 0001428 106.4824 253.6325 15.08842552 71882,6917.873,95.437,540.725,538.75,0.0
53859.0,STARLINK-4790,PAYLOAD,2023-12-28 20:00:14,15.08840706,0.0001511,53.2173,288.4505,104.8029,255.3131,9.671e-06,-1.34e-06,0.0,0 STARLINK-4790,1 53859U 22114AT  23362.83350150 -.00000134  00000-0  96710-5 0  9998,2 53859  53.2173 288.4505 0001511 104.8029 255.3131 15.08840706 71992,6917.878,95.438,540.789,538.698,0.0
53859.0,STARLINK-4790,PAYLOAD,2023-12-29 03:57:10,15.0884584,0.0001434,53.2179,286.9624,98.1716,261.9438,0.00012289,1.669e-05,0.0,0 STARLINK-4790,1 53859U 22114AT  23363.16469916  .00001669  00000-0  12289-3 0  9996,2 53859  53.2179 286.9624 0001434  98.1716 261.9438 15.08845840 71509,6917.863,95.437,540.72,538.736,0.0
53859.0,STARLINK-4790,PAYLOAD,2023-12-30 03:47:57,15.08846062,0.0001374,53.2183,282.5009,91.7554,268.3595,0.00015228,2.137e-05,0.0,0 STARLINK-4790,1 53859U 22114AT  23364.15829989  .00002137  00000-0  15228-3 0  9993,2 53859  53.2183 282.5009 0001374  91.7554 268.3595 15.08846062 71653,6917.862,95.437,540.677,538.776,0.0
53859.0,STARLINK-4790,PAYLOAD,2023-12-30 22:52:35,15.08837727,0.0001457,53.2178,278.9357,89.9383,270.1776,7.0633e-07,-2.77e-06,0.0,0 STARLINK-4790,1 53859U 22114AT  23364.95318563 -.00000277  00000-0  70633-6 0  9990,2 53859  53.2178 278.9357 0001457  89.9383 270.1776 15.08837727 72317,6917.887,95.438,540.76,538.744,0.0
53859.0,STARLINK-4790,PAYLOAD,2023-12-31 03:38:44,15.0884292,0.0001559,53.2177,278.0427,86.3471,273.77,9.014e-05,1.147e-05,0.0,0 STARLINK-4790,1 53859U 22114AT  23365.15190367  .00001147  00000-0  90140-4 0  9992,2 53859  53.2177 278.0427 0001559  86.3471 273.7700 15.08842920 71807,6917.871,95.437,540.815,538.658,0.0
53859.0,STARLINK-4790,PAYLOAD,2024-01-01 01:54:08,15.08841309,0.0001439,53.2169,273.8777,85.9342,274.1815,8.4862e-05,1.063e-05,0.0,0 STARLINK-4790,1 53859U 22114AT  24001.07926611  .00001063  00000-0  84862-4 0  9991,2 53859  53.2169 273.8777 0001439  85.9342 274.1815 15.08841309 71945,6917.876,95.437,540.737,538.746,0.0
53859.0,STARLINK-4790,PAYLOAD,2024-01-01 22:34:09,15.08850907,0.0001639,53.2168,270.0143,79.8099,280.3078,0.00023892,3.518e-05,0.0,0 STARLINK-4790,1 53859U 22114AT  24001.94038274  .00003518  00000-0  23892-3 0  9998,2 53859  53.2168 270.0143 0001639  79.8099 280.3078 15.08850907 72612,6917.847,95.437,540.846,538.578,0.0
53859.0,STARLINK-4790,PAYLOAD,2024-01-02 00:09:32,15.08852346,0.0001691,53.2165,269.7175,78.216,281.9022,0.00027482,4.09e-05,0.0,0 STARLINK-4790,1 53859U 22114AT  24002.00662216  .00004090  00000-0  27482-3 0  9990,2 53859  53.2165 269.7175 0001691  78.2160 281.9022 15.08852346 72085,6917.843,95.437,540.877,538.538,0.0
53859.0,STARLINK-4790,PAYLOAD,2024-01-02 17:38:46,15.088437,0.0001749,53.2149,266.4498,65.2836,294.8338,0.00024513,3.616e-05,0.0,0 STARLINK-4790,1 53859U 22114AT  24002.73526486  .00003616  00000-0  24513-3 0  9993,2 53859  53.2149 266.4498 0001749  65.2836 294.8338 15.08843700 72198,6917.869,95.437,540.944,538.524,0.0
53859.0,STARLINK-4790,PAYLOAD,2024-01-02 22:24:55,15.08844171,0.0001635,53.2155,265.5553,111.6572,248.4595,3.0649e-05,2e-06,0.0,0 STARLINK-4790,1 53859U 22114AT  24002.93398143  .00000200  00000-0  30649-4 0  9996,2 53859  53.2155 265.5553 0001635 111.6572 248.4595 15.08844171 72760,6917.868,95.437,540.864,538.602,0.0
53859.0,STARLINK-4790,PAYLOAD,2024-01-03 03:11:05,15.08848045,0.0001412,53.2168,264.6603,93.2391,266.8763,7.6987e-05,9.38e-06,0.0,0 STARLINK-4790,1 53859U 22114AT  24003.13269898  .00000938  00000-0  76987-4 0  9996,2 53859  53.2168 264.6603 0001412  93.2391 266.8763 15.08848045 72795,6917.856,95.437,540.698,538.744,0.0
53859.0,STARLINK-4790,PAYLOAD,2024-01-03 22:15:43,15.08840436,0.0001493,53.2167,261.0903,104.981,255.1348,-7.8385e-05,-1.535e-05,0.0,0 STARLINK-4790,1 53859U 22114AT  24003.92758660 -.00001535  00000-0 -78385-4 0  9993,2 53859  53.2167 261.0903 0001493 104.9810 255.1348 15.08840436 72913,6917.879,95.438,540.777,538.711,0.0
53859.0,STARLINK-4790,PAYLOAD,2024-01-04 03:01:52,15.08842094,0.0001673,53.2167,260.1985,105.7348,254.3829,-0.00010356,-1.936e-05,0.0,0 STARLINK-4790,1 53859U 22114AT  24004.12630578 -.00001936  00000-0 -10356-3 0  9991,2 53859  53.2167 260.1985 0001673 105.7348 254.3829 15.08842094 72409,6917.874,95.437,540.896,538.582,0.0
53859.0,STARLINK-4790,PAYLOAD,2024-01-04 22:06:29,15.08844256,0.0001306,53.2169,256.6299,92.6578,267.4563,6.2272e-05,7.03e-06,0.0,0 STARLINK-4790,1 53859U 22114AT  24004.92118036  .00000703  00000-0  62272-4 0  9993,2 53859  53.2169 256.6299 0001306  92.6578 267.4563 15.08844256 73066,6917.867,95.437,540.636,538.829,0.0
53859.0,STARLINK-4790,PAYLOAD,2024-01-04 23:41:53,15.08845608,0.0001318,53.2171,256.3325,94.5473,265.5669,7.4257e-05,8.94e-06,0.0,0 STARLINK-4790,1 53859U 22114AT  24004.98741909  .00000894  00000-0  74257-4 0  9997,2 53859  53.2171 256.3325 0001318  94.5473 265.5669 15.08845608 72533,6917.863,95.437,540.64,538.816,0.0
